ONEWEB-0249             
1 48967U 21060A   24242.66635998  .00000083  00000+0  18350-3 0  9999
2 48967  87.9161 359.5024 0001796  98.7999 261.3335 13.16596188153224
ONEWEB-0250             
1 48968U 21060B   24242.62513828  .00000079  00000+0  15173-3 0  9998
2 48968  87.9165 359.4020 0001976 112.8389 247.2956 13.25520753153222
ONEWEB-0252             
1 48970U 21060D   24242.62202420  .00000154  00000+0  36806-3 0  9994
2 48970  87.9165 359.5048 0001657  98.4264 261.7055 13.16596769153268
ONEWEB-0253             
1 48971U 21060E   24242.61094056  .00000113  00000+0  26243-3 0  9997
2 48971  87.9166 359.5177 0001625 107.5739 252.5570 13.16596419153191
ONEWEB-0254             
1 48972U 21060F   24242.62044082  .00000174  00000+0  42142-3 0  9996
2 48972  87.9164 359.4947 0001651 108.8056 251.3254 13.16596061153198
ONEWEB-0255             
1 48973U 21060G   24242.58244022 -.00000385  00000+0 -10409-2 0  9994
2 48973  87.9166 359.5365 0001861 107.7135 252.4199 13.16594813153266
ONEWEB-0256             
1 48974U 21060H   24242.60856001 -.00000122  00000+0 -35369-3 0  9996
2 48974  87.9166 359.5370 0001808  95.0526 265.0812 13.16592017153230
ONEWEB-0257             
1 48975U 21060J   24242.56501976  .00000136  00000+0  32236-3 0  9993
2 48975  87.9170 359.5146 0001624  99.1072 261.0243 13.16594686153186
